H1 CPF  1  HTS 2022 10 13 12  7861 larets           NONE
H2  0304206 5557    27944 2022 10 13  0  0  0 2022 10 18  0  0  0   180 1 1  0 0 0
H5  0.0560 
H9 
10 0 59869  69480.00000  0    1912512.366   -6174107.136    2844972.565
10 0 59869  69660.00000  0    1747947.735   -6658047.860    1577705.829
10 0 59869  69840.00000  0    1510267.477   -6894218.451     252558.916
10 0 59869  70020.00000  0    1214754.363   -6872220.730   -1081857.310
10 0 59869  70200.00000  0     878964.604   -6591594.292   -2376578.695
10 0 59869  70380.00000  0     521809.823   -6061868.116   -3584141.358
10 0 59869  70560.00000  0     162596.387   -5302195.899   -4660361.446
10 0 59869  70740.00000  0    -179932.435   -4340597.443   -5565967.276
10 0 59869  70920.00000  0    -488502.565   -3212852.998   -6268016.358
10 0 59869  71100.00000  0    -748118.746   -1961110.406   -6741053.884
10 0 59869  71280.00000  0    -946744.200    -632271.404   -6967982.707
10 0 59869  71460.00000  0   -1075825.497     723776.487   -6940633.152
10 0 59869  71640.00000  0   -1130644.634    2056021.292   -6660026.694
10 0 59869  71820.00000  0   -1110488.970    3314222.819   -6136336.728
10 0 59869  72000.00000  0   -1018634.460    4450794.279   -5388550.030
10 0 59869  72180.00000  0    -862141.984    5422611.769   -4443825.089
10 0 59869  72360.00000  0    -651474.419    6192686.493   -3336553.568
10 0 59869  72540.00000  0    -399947.099    6731627.621   -2107141.379
10 0 59869  72720.00000  0    -123033.536    7018828.309    -800546.111
10 0 59869  72900.00000  0     162441.629    7043312.404     535382.501
10 0 59869  73080.00000  0     439184.055    6804191.111    1851693.640
10 0 59869  73260.00000  0     690335.188    6310695.942    3100179.147
10 0 59869  73440.00000  0     900350.498    5581788.827    4235176.642
10 0 59869  73620.00000  0    1055812.465    4645383.731    5215260.216
10 0 59869  73800.00000  0    1146132.524    3537207.386    6004751.472
10 0 59869  73980.00000  0    1164111.783    2299375.697    6574978.157
10 0 59869  74160.00000  0    1106336.649     978759.034    6905267.980
10 0 59869  74340.00000  0     973394.654    -374804.468    6983650.238
10 0 59869  74520.00000  0     769904.427   -1710376.371    6807258.630
10 0 59869  74700.00000  0     504356.919   -2977816.752    6382435.322
10 0 59869  74880.00000  0     188771.453   -4129657.087    5724524.126
10 0 59869  75060.00000  0    -161819.680   -5122878.756    4857353.216
10 0 59869  75240.00000  0    -530039.058   -5920544.708    3812430.395
10 0 59869  75420.00000  0    -896968.430   -6493234.502    2627847.402
10 0 59869  75600.00000  0   -1243054.588   -6820200.805    1346912.784
10 0 59869  75780.00000  0   -1549072.701   -6890192.025      16563.341
10 0 59869  75960.00000  0   -1797100.945   -6701888.045   -1314394.412
10 0 59869  76140.00000  0   -1971447.158   -6263915.939   -2597128.192
10 0 59869  76320.00000  0   -2059482.926   -5594450.002   -3784624.191
10 0 59869  76500.00000  0   -2052341.135   -4720413.773   -4833450.043
10 0 59869  76680.00000  0   -1945438.950   -3676331.890   -5705352.521
10 0 59869  76860.00000  0   -1738804.872   -2502904.359   -6368631.375
10 0 59869  77040.00000  0   -1437197.431   -1245371.709   -6799250.798
10 0 59869  77220.00000  0   -1050013.423      48255.598   -6981656.117
10 0 59869  77400.00000  0    -590993.833    1329029.238   -6909287.115
10 0 59869  77580.00000  0     -77735.692    2548895.664   -6584789.181
10 0 59869  77760.00000  0     468972.621    3662478.941   -6019924.125
10 0 59869  77940.00000  0    1025978.585    4628765.857   -5235177.737
10 0 59869  78120.00000  0    1568725.593    5412633.600   -4259063.278
10 0 59869  78300.00000  0    2072312.728    5986168.776   -3127132.462
10 0 59869  78480.00000  0    2512611.380    6329717.157   -1880711.328
10 0 59869  78660.00000  0    2867388.486    6432615.162    -565397.790
10 0 59869  78840.00000  0    3117379.053    6293556.045     770630.730
10 0 59869  79020.00000  0    3247249.197    5920563.729    2078422.800
10 0 59869  79200.00000  0    3246400.023    5330580.257    3310090.142
10 0 59869  79380.00000  0    3109571.537    4548686.868    4420598.248
10 0 59869  79560.00000  0    2837215.845    3607000.781    5369432.254
10 0 59869  79740.00000  0    2435614.641    2543305.807    6122064.963
10 0 59869  79920.00000  0    1916753.628    1399499.185    6651171.882
10 0 59869  80100.00000  0    1297960.411     219922.518    6937575.535
10 0 59869  80280.00000  0     601318.123    -950354.282    6970892.755
10 0 59869  80460.00000  0    -147120.707   -2067238.690    6749887.867
10 0 59869  80640.00000  0    -918300.503   -3089263.820    6282518.521
10 0 59869  80820.00000  0   -1681274.752   -3979120.921    5585669.539
10 0 59869  81000.00000  0   -2404427.375   -4705028.329    4684591.374
10 0 59869  81180.00000  0   -3056778.396   -5241903.179    3612046.588
10 0 59869  81360.00000  0   -3609317.269   -5572281.436    2407158.748
10 0 59869  81540.00000  0   -4036294.359   -5686933.966    1113999.608
10 0 59869  81720.00000  0   -4316413.482   -5585149.663    -220033.856
10 0 59869  81900.00000  0   -4433863.797   -5274664.074   -1545994.125
10 0 59869  82080.00000  0   -4379131.206   -4771229.121   -2815235.325
10 0 59869  82260.00000  0   -4149540.622   -4097840.740   -3981252.591
10 0 59869  82440.00000  0   -3749502.175   -3283673.553   -5001418.551
10 0 59869  82620.00000  0   -3190456.168   -2362786.093   -5838545.588
10 0 59869  82800.00000  0   -2490525.510   -1372663.870   -6462216.704
10 0 59869  82980.00000  0   -1673896.543    -352671.483   -6849846.231
10 0 59869  83160.00000  0    -769957.085     657518.343   -6987441.371
10 0 59869  83340.00000  0     187766.543    1619454.519   -6870060.565
10 0 59869  83520.00000  0    1162841.760    2497352.065   -6501973.834
10 0 59869  83700.00000  0    2117300.855    3259412.480   -5896523.012
10 0 59869  83880.00000  0    3013109.269    3878979.008   -5075671.739
10 0 59869  84060.00000  0    3813678.096    4335485.757   -4069256.203
10 0 59869  84240.00000  0    4485370.484    4615171.226   -2913947.426
10 0 59869  84420.00000  0    4998938.074    4711518.532   -1651940.997
10 0 59869  84600.00000  0    5330815.385    4625396.027    -329416.171
10 0 59869  84780.00000  0    5464204.186    4364887.197    1005179.972
10 0 59869  84960.00000  0    5389887.884    3944817.187    2302947.214
10 0 59869  85140.00000  0    5106737.817    3385996.255    3516370.064
99
